{"fetched_at":"2026-03-30T13:17:50Z","count":15418,"tles":[{"name":"STARLINK-3624","line1":"1 51773U 22017F   26087.75045992  .00001235  00000+0  95629-4 0  9994","line2":"2 51773  53.2169 253.5217 0001230  82.1925 277.9207 15.08846583225482","category":"Starlink"}]}